CCSDS_OMM_VERS = 2.0
CREATION_DATE  = 
ORIGINATOR     = 

OBJECT_NAME    = STARLINK-35476
OBJECT_ID      = 2025-280E
CENTER_NAME    = EARTH
REF_FRAME      = TEME
TIME_SYSTEM    = UTC
MEAN_ELEMENT_THEORY = SGP/SGP4

EPOCH          = 2025-12-13T16:30:56.327616
MEAN_MOTION    = 15.77067540
ECCENTRICITY   = .00046688
INCLINATION    = 69.9934
RA_OF_ASC_NODE = 196.1307
ARG_OF_PERICENTER = 280.3772
MEAN_ANOMALY   = 79.6901

EPHEMERIS_TYPE = 0
CLASSIFICATION_TYPE = U
NORAD_CAT_ID   = 66825
ELEMENT_SET_NO = 999
REV_AT_EPOCH   = 307
BSTAR          = -.39943465E-2
MEAN_MOTION_DOT = -.608447E-2
MEAN_MOTION_DDOT = 0

CCSDS_OMM_VERS = 2.0
CREATION_DATE  = 
ORIGINATOR     = 

OBJECT_NAME    = STARLINK-35898
OBJECT_ID      = 2025-280F
CENTER_NAME    = EARTH
REF_FRAME      = TEME
TIME_SYSTEM    = UTC
MEAN_ELEMENT_THEORY = SGP/SGP4

EPOCH          = 2025-12-13T18:01:47.295840
MEAN_MOTION    = 15.77067962
ECCENTRICITY   = .00050994
INCLINATION    = 69.9929
RA_OF_ASC_NODE = 195.9490
ARG_OF_PERICENTER = 227.1820
MEAN_ANOMALY   = 132.8951

EPHEMERIS_TYPE = 0
CLASSIFICATION_TYPE = U
NORAD_CAT_ID   = 66826
ELEMENT_SET_NO = 999
REV_AT_EPOCH   = 308
BSTAR          = -.20306743E-2
MEAN_MOTION_DOT = -.319857E-2
MEAN_MOTION_DDOT = 0

CCSDS_OMM_VERS = 2.0
CREATION_DATE  = 
ORIGINATOR     = 

OBJECT_NAME    = STARLINK-35959
OBJECT_ID      = 2025-280G
CENTER_NAME    = EARTH
REF_FRAME      = TEME
TIME_SYSTEM    = UTC
MEAN_ELEMENT_THEORY = SGP/SGP4

EPOCH          = 2025-12-13T16:29:57.289632
MEAN_MOTION    = 15.77058622
ECCENTRICITY   = .00061494
INCLINATION    = 69.9897
RA_OF_ASC_NODE = 196.1265
ARG_OF_PERICENTER = 289.4107
MEAN_ANOMALY   = 70.6427

EPHEMERIS_TYPE = 0
CLASSIFICATION_TYPE = U
NORAD_CAT_ID   = 66827
ELEMENT_SET_NO = 999
REV_AT_EPOCH   = 307
BSTAR          = -.38259843E-2
MEAN_MOTION_DOT = -.584667E-2
MEAN_MOTION_DDOT = 0

CCSDS_OMM_VERS = 2.0
CREATION_DATE  = 
ORIGINATOR     = 

OBJECT_NAME    = STARLINK-35982
OBJECT_ID      = 2025-280H
CENTER_NAME    = EARTH
REF_FRAME      = TEME
TIME_SYSTEM    = UTC
MEAN_ELEMENT_THEORY = SGP/SGP4

EPOCH          = 2025-12-13T14:57:32.980896
MEAN_MOTION    = 15.77283377
ECCENTRICITY   = .00048196
INCLINATION    = 69.9930
RA_OF_ASC_NODE = 196.3050
ARG_OF_PERICENTER = 269.5547
MEAN_ANOMALY   = 90.5101

EPHEMERIS_TYPE = 0
CLASSIFICATION_TYPE = U
NORAD_CAT_ID   = 66828
ELEMENT_SET_NO = 999
REV_AT_EPOCH   = 306
BSTAR          = -.38335704E-2
MEAN_MOTION_DOT = -.590837E-2
MEAN_MOTION_DDOT = 0

CCSDS_OMM_VERS = 2.0
CREATION_DATE  = 
ORIGINATOR     = 

OBJECT_NAME    = STARLINK-36084
OBJECT_ID      = 2025-280J
CENTER_NAME    = EARTH
REF_FRAME      = TEME
TIME_SYSTEM    = UTC
MEAN_ELEMENT_THEORY = SGP/SGP4

EPOCH          = 2025-12-13T18:00:48.254400
MEAN_MOTION    = 15.76802697
ECCENTRICITY   = .00054898
INCLINATION    = 69.9927
RA_OF_ASC_NODE = 195.9462
ARG_OF_PERICENTER = 277.7700
MEAN_ANOMALY   = 82.2876

EPHEMERIS_TYPE = 0
CLASSIFICATION_TYPE = U
NORAD_CAT_ID   = 66829
ELEMENT_SET_NO = 999
REV_AT_EPOCH   = 308
BSTAR          = -.41544453E-2
MEAN_MOTION_DOT = -.624565E-2
MEAN_MOTION_DDOT = 0

CCSDS_OMM_VERS = 2.0
CREATION_DATE  = 
ORIGINATOR     = 

OBJECT_NAME    = STARLINK-35881
OBJECT_ID      = 2025-280K
CENTER_NAME    = EARTH
REF_FRAME      = TEME
TIME_SYSTEM    = UTC
MEAN_ELEMENT_THEORY = SGP/SGP4

EPOCH          = 2025-12-13T22:35:58.233408
MEAN_MOTION    = 15.68084391
ECCENTRICITY   = .00287147
INCLINATION    = 69.9917
RA_OF_ASC_NODE = 195.4072
ARG_OF_PERICENTER = 76.4013
MEAN_ANOMALY   = 284.0377

EPHEMERIS_TYPE = 0
CLASSIFICATION_TYPE = U
NORAD_CAT_ID   = 66830
ELEMENT_SET_NO = 999
REV_AT_EPOCH   = 311
BSTAR          = -.37632169E-1
MEAN_MOTION_DOT = -.3666125E-1
MEAN_MOTION_DDOT = 0

CCSDS_OMM_VERS = 2.0
CREATION_DATE  = 
ORIGINATOR     = 

OBJECT_NAME    = STARLINK-35788
OBJECT_ID      = 2025-280L
CENTER_NAME    = EARTH
REF_FRAME      = TEME
TIME_SYSTEM    = UTC
MEAN_ELEMENT_THEORY = SGP/SGP4

EPOCH          = 2025-12-13T14:56:46.344768
MEAN_MOTION    = 15.72459416
ECCENTRICITY   = .00168784
INCLINATION    = 69.9932
RA_OF_ASC_NODE = 196.3022
ARG_OF_PERICENTER = 78.8344
MEAN_ANOMALY   = 281.4750

EPHEMERIS_TYPE = 0
CLASSIFICATION_TYPE = U
NORAD_CAT_ID   = 66831
ELEMENT_SET_NO = 999
REV_AT_EPOCH   = 306
BSTAR          = -.76984788E-1
MEAN_MOTION_DOT = -.8455505E-1
MEAN_MOTION_DDOT = 0

CCSDS_OMM_VERS = 2.0
CREATION_DATE  = 
ORIGINATOR     = 

OBJECT_NAME    = STARLINK-35768
OBJECT_ID      = 2025-280M
CENTER_NAME    = EARTH
REF_FRAME      = TEME
TIME_SYSTEM    = UTC
MEAN_ELEMENT_THEORY = SGP/SGP4

EPOCH          = 2025-12-13T14:55:27.560064
MEAN_MOTION    = 15.80021789
ECCENTRICITY   = .00151194
INCLINATION    = 69.9927
RA_OF_ASC_NODE = 196.2997
ARG_OF_PERICENTER = 247.1281
MEAN_ANOMALY   = 112.8324

EPHEMERIS_TYPE = 0
CLASSIFICATION_TYPE = U
NORAD_CAT_ID   = 66832
ELEMENT_SET_NO = 999
REV_AT_EPOCH   = 306
BSTAR          = .77359951E-2
MEAN_MOTION_DOT = .1661345E-1
MEAN_MOTION_DDOT = 0

CCSDS_OMM_VERS = 2.0
CREATION_DATE  = 
ORIGINATOR     = 

OBJECT_NAME    = STARLINK-35858
OBJECT_ID      = 2025-280N
CENTER_NAME    = EARTH
REF_FRAME      = TEME
TIME_SYSTEM    = UTC
MEAN_ELEMENT_THEORY = SGP/SGP4

EPOCH          = 2025-12-13T07:19:00.808608
MEAN_MOTION    = 15.78368693
ECCENTRICITY   = .00051238
INCLINATION    = 69.9935
RA_OF_ASC_NODE = 197.2021
ARG_OF_PERICENTER = 320.7844
MEAN_ANOMALY   = 39.2984

EPHEMERIS_TYPE = 0
CLASSIFICATION_TYPE = U
NORAD_CAT_ID   = 66833
ELEMENT_SET_NO = 999
REV_AT_EPOCH   = 301
BSTAR          = -.44392665E-2
MEAN_MOTION_DOT = -.708761E-2
MEAN_MOTION_DDOT = 0

CCSDS_OMM_VERS = 2.0
CREATION_DATE  = 
ORIGINATOR     = 

OBJECT_NAME    = STARLINK-35840
OBJECT_ID      = 2025-280P
CENTER_NAME    = EARTH
REF_FRAME      = TEME
TIME_SYSTEM    = UTC
MEAN_ELEMENT_THEORY = SGP/SGP4

EPOCH          = 2025-12-13T20:59:36.421440
MEAN_MOTION    = 15.78881261
ECCENTRICITY   = .00087169
INCLINATION    = 70.0015
RA_OF_ASC_NODE = 195.5774
ARG_OF_PERICENTER = 315.9830
MEAN_ANOMALY   = 44.0675

EPHEMERIS_TYPE = 0
CLASSIFICATION_TYPE = U
NORAD_CAT_ID   = 66834
ELEMENT_SET_NO = 999
REV_AT_EPOCH   = 310
BSTAR          = .52965953E-2
MEAN_MOTION_DOT = .103931E-1
MEAN_MOTION_DDOT = 0

CCSDS_OMM_VERS = 2.0
CREATION_DATE  = 
ORIGINATOR     = 

OBJECT_NAME    = STARLINK-35890
OBJECT_ID      = 2025-280Q
CENTER_NAME    = EARTH
REF_FRAME      = TEME
TIME_SYSTEM    = UTC
MEAN_ELEMENT_THEORY = SGP/SGP4

EPOCH          = 2025-12-13T13:22:48.290304
MEAN_MOTION    = 15.79814864
ECCENTRICITY   = .00138963
INCLINATION    = 69.9919
RA_OF_ASC_NODE = 196.4761
ARG_OF_PERICENTER = 248.7562
MEAN_ANOMALY   = 111.2155

EPHEMERIS_TYPE = 0
CLASSIFICATION_TYPE = U
NORAD_CAT_ID   = 66835
ELEMENT_SET_NO = 999
REV_AT_EPOCH   = 305
BSTAR          = .87903868E-2
MEAN_MOTION_DOT = .185624E-1
MEAN_MOTION_DDOT = 0

CCSDS_OMM_VERS = 2.0
CREATION_DATE  = 
ORIGINATOR     = 

OBJECT_NAME    = STARLINK-35838
OBJECT_ID      = 2025-280R
CENTER_NAME    = EARTH
REF_FRAME      = TEME
TIME_SYSTEM    = UTC
MEAN_ELEMENT_THEORY = SGP/SGP4

EPOCH          = 2025-12-13T04:15:00.565632
MEAN_MOTION    = 15.78955191
ECCENTRICITY   = .00042084
INCLINATION    = 69.9920
RA_OF_ASC_NODE = 197.5573
ARG_OF_PERICENTER = 272.9610
MEAN_ANOMALY   = 87.1108

EPHEMERIS_TYPE = 0
CLASSIFICATION_TYPE = U
NORAD_CAT_ID   = 66836
ELEMENT_SET_NO = 999
REV_AT_EPOCH   = 299
BSTAR          = -.47166842E-2
MEAN_MOTION_DOT = -.767648E-2
MEAN_MOTION_DDOT = 0

