STARLINK-35476          
1 66825U 25280E   25347.68815194 -.00608447  00000+0 -39943-2 0  9997
2 66825  69.9934 196.1307 0004668 280.3772  79.6901 15.77067540  3073
STARLINK-35898          
1 66826U 25280F   25347.75124185 -.00319857  00000+0 -20307-2 0  9997
2 66826  69.9929 195.9490 0005099 227.1820 132.8951 15.77067962  3086
STARLINK-35959          
1 66827U 25280G   25347.68746863 -.00584667  00000+0 -38260-2 0  9993
2 66827  69.9897 196.1265 0006149 289.4107  70.6427 15.77058622  3079
STARLINK-35982          
1 66828U 25280H   25347.62329839 -.00590837  00000+0 -38336-2 0  9998
2 66828  69.9930 196.3050 0004819 269.5547  90.5101 15.77283377  3067
STARLINK-36084          
1 66829U 25280J   25347.75055850 -.00624565  00000+0 -41544-2 0  9993
2 66829  69.9927 195.9462 0005489 277.7700  82.2876 15.76802697  3082
STARLINK-35881          
1 66830U 25280K   25347.94164622 -.03666125  00000+0 -37632-1 0  9997
2 66830  69.9917 195.4072 0028714  76.4013 284.0377 15.68084391  3118
STARLINK-35788          
1 66831U 25280L   25347.62275862 -.08455505  00000+0 -76985-1 0  9999
2 66831  69.9932 196.3022 0016878  78.8344 281.4750 15.72459416  3061
STARLINK-35768          
1 66832U 25280M   25347.62184676  .01661345  00000+0  77360-2 0  9993
2 66832  69.9927 196.2997 0015119 247.1281 112.8324 15.80021789  3065
STARLINK-35858          
1 66833U 25280N   25347.30487047 -.00708761  00000+0 -44393-2 0  9992
2 66833  69.9935 197.2021 0005123 320.7844  39.2984 15.78368693  3015
STARLINK-35840          
1 66834U 25280P   25347.87472710  .01039310  00000+0  52966-2 0  9997
2 66834  70.0015 195.5774 0008716 315.9830  44.0675 15.78881261  3108
STARLINK-35890          
1 66835U 25280Q   25347.55750336  .01856240  00000+0  87904-2 0  9995
2 66835  69.9919 196.4761 0013896 248.7562 111.2155 15.79814864  3055
STARLINK-35838          
1 66836U 25280R   25347.17708988 -.00767648  00000+0 -47167-2 0  9991
2 66836  69.9920 197.5573 0004208 272.9610  87.1108 15.78955191  2990
